STARLINK-31238          
1 58853U 24019A   25208.68391308 -.00002502  00000+0 -85825-4 0  9992
2 58853  43.0025  78.5074 0001153 265.6846  94.3874 15.25914643 84684
STARLINK-31158          
1 58854U 24019B   25209.25002315 -.00002549  00000+0 -83114-4 0  9994
2 58854  43.0004  76.5158 0001746 276.7547 186.3713 15.27582794 84563
STARLINK-31237          
1 58855U 24019C   25208.68122004  .00001385  00000+0  59847-4 0  9990
2 58855  42.9996  79.3869 0001203 271.8529  88.2185 15.27579108 84676
STARLINK-31244          
1 58856U 24019D   25208.63253754 -.00000313  00000+0 -18680-5 0  9996
2 58856  43.0035  79.8585 0001044 302.2661  57.8089 15.27582834 84666
STARLINK-31216          
1 58857U 24019E   25208.87114517  .00004282  00000+0  16499-3 0  9997
2 58857  42.9997  56.6254 0001213 275.2105  84.8608 15.27586324 84933
STARLINK-31226          
1 58858U 24019F   25208.91668981 -.00002247  00000+0 -72166-4 0  9997
2 58858  42.9997  78.4690 0001720 269.8002 129.8654 15.27565924  5913
STARLINK-31197          
1 58859U 24019G   25208.65951768  .00001322  00000+0  57533-4 0  9999
2 58859  42.9994  80.0585 0000985 289.9330  70.1416 15.27585132 84668
STARLINK-31213          
1 58860U 24019H   25209.35308182 -.00001139  00000+0 -31895-4 0  9996
2 58860  43.0048  75.8005 0000446 346.0728  14.0111 15.27567149 84778
STARLINK-31199          
1 58861U 24019J   25209.34922909  .00001661  00000+0  69880-4 0  9998
2 58861  43.0048  75.7764 0001450 265.0328  95.0358 15.27580283 84778
STARLINK-31200          
1 58862U 24019K   25209.35050919 -.00000941  00000+0 -24694-4 0  9999
2 58862  43.0019  75.7911 0001478 270.8804  89.1879 15.27570366 84777
STARLINK-31149          
1 58863U 24019L   25208.66965506  .00001074  00000+0  48552-4 0  9995
2 58863  43.0022  79.2767 0000864 263.8335  96.2418 15.27576880 84673
STARLINK-31242          
1 58864U 24019M   25208.37613260  .00000674  00000+0  34020-4 0  9991
2 58864  43.0045  81.3740 0001141 290.7546  69.3184 15.27578273 84620
STARLINK-31223          
1 58865U 24019N   25209.35709438 -.00000769  00000+0 -19569-4 0  9992
2 58865  43.0016  75.8480 0001322 277.5518  82.5183 15.25901021 84615
STARLINK-31219          
1 58866U 24019P   25208.94147684  .00000861  00000+0  40806-4 0  9995
2 58866  43.0017  77.8747 0001490 267.9801  92.0880 15.27579767 84473
STARLINK-31198          
1 58867U 24019Q   25209.34278741 -.00001208  00000+0 -34390-4 0  9999
2 58867  43.0010  75.7183 0001285 283.4914  76.5795 15.27584270 84510
STARLINK-31196          
1 58868U 24019R   25208.65514703 -.00003462  00000+0 -12257-3 0  9995
2 58868  42.9962  80.0363 0000053  70.0613 290.0244 15.25917334 84647
STARLINK-31203          
1 58869U 24019S   25208.67125150  .00019927  00000+0  76155-3 0  9990
2 58869  43.0029  74.9538 0001460 258.1370 101.9318 15.26258361 84722
