[{"OBJECT_NAME":"STARLINK-31238","OBJECT_ID":"2024-019A","EPOCH":"2025-07-27T16:24:50.090112","MEAN_MOTION":15.25914643,"ECCENTRICITY":0.0001153,"INCLINATION":43.0025,"RA_OF_ASC_NODE":78.5074,"ARG_OF_PERICENTER":265.6846,"MEAN_ANOMALY":94.3874,"EPHEMERIS_TYPE":0,"CLASSIFICATION_TYPE":"U","NORAD_CAT_ID":58853,"ELEMENT_SET_NO":999,"REV_AT_EPOCH":8468,"BSTAR":-8.5825e-5,"MEAN_MOTION_DOT":-2.502e-5,"MEAN_MOTION_DDOT":0},{"OBJECT_NAME":"STARLINK-31158","OBJECT_ID":"2024-019B","EPOCH":"2025-07-28T06:00:02.000160","MEAN_MOTION":15.27582794,"ECCENTRICITY":0.0001746,"INCLINATION":43.0004,"RA_OF_ASC_NODE":76.5158,"ARG_OF_PERICENTER":276.7547,"MEAN_ANOMALY":186.3713,"EPHEMERIS_TYPE":0,"CLASSIFICATION_TYPE":"U","NORAD_CAT_ID":58854,"ELEMENT_SET_NO":999,"REV_AT_EPOCH":8456,"BSTAR":-8.3114e-5,"MEAN_MOTION_DOT":-2.549e-5,"MEAN_MOTION_DDOT":0},{"OBJECT_NAME":"STARLINK-31237","OBJECT_ID":"2024-019C","EPOCH":"2025-07-27T16:20:57.411456","MEAN_MOTION":15.27579108,"ECCENTRICITY":0.0001203,"INCLINATION":42.9996,"RA_OF_ASC_NODE":79.3869,"ARG_OF_PERICENTER":271.8529,"MEAN_ANOMALY":88.2185,"EPHEMERIS_TYPE":0,"CLASSIFICATION_TYPE":"U","NORAD_CAT_ID":58855,"ELEMENT_SET_NO":999,"REV_AT_EPOCH":8467,"BSTAR":5.9847e-5,"MEAN_MOTION_DOT":1.385e-5,"MEAN_MOTION_DDOT":0},{"OBJECT_NAME":"STARLINK-31244","OBJECT_ID":"2024-019D","EPOCH":"2025-07-27T15:10:51.243456","MEAN_MOTION":15.27582834,"ECCENTRICITY":0.0001044,"INCLINATION":43.0035,"RA_OF_ASC_NODE":79.8585,"ARG_OF_PERICENTER":302.2661,"MEAN_ANOMALY":57.8089,"EPHEMERIS_TYPE":0,"CLASSIFICATION_TYPE":"U","NORAD_CAT_ID":58856,"ELEMENT_SET_NO":999,"REV_AT_EPOCH":8466,"BSTAR":-1.868e-6,"MEAN_MOTION_DOT":-3.13e-6,"MEAN_MOTION_DDOT":0},{"OBJECT_NAME":"STARLINK-31216","OBJECT_ID":"2024-019E","EPOCH":"2025-07-27T20:54:26.942688","MEAN_MOTION":15.27586324,"ECCENTRICITY":0.0001213,"INCLINATION":42.9997,"RA_OF_ASC_NODE":56.6254,"ARG_OF_PERICENTER":275.2105,"MEAN_ANOMALY":84.8608,"EPHEMERIS_TYPE":0,"CLASSIFICATION_TYPE":"U","NORAD_CAT_ID":58857,"ELEMENT_SET_NO":999,"REV_AT_EPOCH":8493,"BSTAR":0.00016499,"MEAN_MOTION_DOT":4.282e-5,"MEAN_MOTION_DDOT":0},{"OBJECT_NAME":"STARLINK-31226","OBJECT_ID":"2024-019F","EPOCH":"2025-07-27T22:00:01.999584","MEAN_MOTION":15.27565924,"ECCENTRICITY":0.000172,"INCLINATION":42.9997,"RA_OF_ASC_NODE":78.469,"ARG_OF_PERICENTER":269.8002,"MEAN_ANOMALY":129.8654,"EPHEMERIS_TYPE":0,"CLASSIFICATION_TYPE":"U","NORAD_CAT_ID":58858,"ELEMENT_SET_NO":999,"REV_AT_EPOCH":591,"BSTAR":-7.2166e-5,"MEAN_MOTION_DOT":-2.247e-5,"MEAN_MOTION_DDOT":0},{"OBJECT_NAME":"STARLINK-31197","OBJECT_ID":"2024-019G","EPOCH":"2025-07-27T15:49:42.327552","MEAN_MOTION":15.27585132,"ECCENTRICITY":9.85e-5,"INCLINATION":42.9994,"RA_OF_ASC_NODE":80.0585,"ARG_OF_PERICENTER":289.933,"MEAN_ANOMALY":70.1416,"EPHEMERIS_TYPE":0,"CLASSIFICATION_TYPE":"U","NORAD_CAT_ID":58859,"ELEMENT_SET_NO":999,"REV_AT_EPOCH":8466,"BSTAR":5.7533e-5,"MEAN_MOTION_DOT":1.322e-5,"MEAN_MOTION_DDOT":0},{"OBJECT_NAME":"STARLINK-31213","OBJECT_ID":"2024-019H","EPOCH":"2025-07-28T08:28:26.269248","MEAN_MOTION":15.27567149,"ECCENTRICITY":4.46e-5,"INCLINATION":43.0048,"RA_OF_ASC_NODE":75.8005,"ARG_OF_PERICENTER":346.0728,"MEAN_ANOMALY":14.0111,"EPHEMERIS_TYPE":0,"CLASSIFICATION_TYPE":"U","NORAD_CAT_ID":58860,"ELEMENT_SET_NO":999,"REV_AT_EPOCH":8477,"BSTAR":-3.1895e-5,"MEAN_MOTION_DOT":-1.139e-5,"MEAN_MOTION_DDOT":0},{"OBJECT_NAME":"STARLINK-31199","OBJECT_ID":"2024-019J","EPOCH":"2025-07-28T08:22:53.393376","MEAN_MOTION":15.27580283,"ECCENTRICITY":0.000145,"INCLINATION":43.0048,"RA_OF_ASC_NODE":75.7764,"ARG_OF_PERICENTER":265.0328,"MEAN_ANOMALY":95.0358,"EPHEMERIS_TYPE":0,"CLASSIFICATION_TYPE":"U","NORAD_CAT_ID":58861,"ELEMENT_SET_NO":999,"REV_AT_EPOCH":8477,"BSTAR":6.988e-5,"MEAN_MOTION_DOT":1.661e-5,"MEAN_MOTION_DDOT":0},{"OBJECT_NAME":"STARLINK-31200","OBJECT_ID":"2024-019K","EPOCH":"2025-07-28T08:24:43.994016","MEAN_MOTION":15.27570366,"ECCENTRICITY":0.0001478,"INCLINATION":43.0019,"RA_OF_ASC_NODE":75.7911,"ARG_OF_PERICENTER":270.8804,"MEAN_ANOMALY":89.1879,"EPHEMERIS_TYPE":0,"CLASSIFICATION_TYPE":"U","NORAD_CAT_ID":58862,"ELEMENT_SET_NO":999,"REV_AT_EPOCH":8477,"BSTAR":-2.4694e-5,"MEAN_MOTION_DOT":-9.41e-6,"MEAN_MOTION_DDOT":0},{"OBJECT_NAME":"STARLINK-31149","OBJECT_ID":"2024-019L","EPOCH":"2025-07-27T16:04:18.197184","MEAN_MOTION":15.2757688,"ECCENTRICITY":8.64e-5,"INCLINATION":43.0022,"RA_OF_ASC_NODE":79.2767,"ARG_OF_PERICENTER":263.8335,"MEAN_ANOMALY":96.2418,"EPHEMERIS_TYPE":0,"CLASSIFICATION_TYPE":"U","NORAD_CAT_ID":58863,"ELEMENT_SET_NO":999,"REV_AT_EPOCH":8467,"BSTAR":4.8552e-5,"MEAN_MOTION_DOT":1.074e-5,"MEAN_MOTION_DDOT":0},{"OBJECT_NAME":"STARLINK-31242","OBJECT_ID":"2024-019M","EPOCH":"2025-07-27T09:01:37.856640","MEAN_MOTION":15.27578273,"ECCENTRICITY":0.0001141,"INCLINATION":43.0045,"RA_OF_ASC_NODE":81.374,"ARG_OF_PERICENTER":290.7546,"MEAN_ANOMALY":69.3184,"EPHEMERIS_TYPE":0,"CLASSIFICATION_TYPE":"U","NORAD_CAT_ID":58864,"ELEMENT_SET_NO":999,"REV_AT_EPOCH":8462,"BSTAR":3.402e-5,"MEAN_MOTION_DOT":6.74e-6,"MEAN_MOTION_DDOT":0},{"OBJECT_NAME":"STARLINK-31223","OBJECT_ID":"2024-019N","EPOCH":"2025-07-28T08:34:12.954432","MEAN_MOTION":15.25901021,"ECCENTRICITY":0.0001322,"INCLINATION":43.0016,"RA_OF_ASC_NODE":75.848,"ARG_OF_PERICENTER":277.5518,"MEAN_ANOMALY":82.5183,"EPHEMERIS_TYPE":0,"CLASSIFICATION_TYPE":"U","NORAD_CAT_ID":58865,"ELEMENT_SET_NO":999,"REV_AT_EPOCH":8461,"BSTAR":-1.9569e-5,"MEAN_MOTION_DOT":-7.69e-6,"MEAN_MOTION_DDOT":0},{"OBJECT_NAME":"STARLINK-31219","OBJECT_ID":"2024-019P","EPOCH":"2025-07-27T22:35:43.598976","MEAN_MOTION":15.27579767,"ECCENTRICITY":0.000149,"INCLINATION":43.0017,"RA_OF_ASC_NODE":77.8747,"ARG_OF_PERICENTER":267.9801,"MEAN_ANOMALY":92.088,"EPHEMERIS_TYPE":0,"CLASSIFICATION_TYPE":"U","NORAD_CAT_ID":58866,"ELEMENT_SET_NO":999,"REV_AT_EPOCH":8447,"BSTAR":4.0806e-5,"MEAN_MOTION_DOT":8.61e-6,"MEAN_MOTION_DDOT":0},{"OBJECT_NAME":"STARLINK-31198","OBJECT_ID":"2024-019Q","EPOCH":"2025-07-28T08:13:36.832224","MEAN_MOTION":15.2758427,"ECCENTRICITY":0.0001285,"INCLINATION":43.001,"RA_OF_ASC_NODE":75.7183,"ARG_OF_PERICENTER":283.4914,"MEAN_ANOMALY":76.5795,"EPHEMERIS_TYPE":0,"CLASSIFICATION_TYPE":"U","NORAD_CAT_ID":58867,"ELEMENT_SET_NO":999,"REV_AT_EPOCH":8451,"BSTAR":-3.439e-5,"MEAN_MOTION_DOT":-1.208e-5,"MEAN_MOTION_DDOT":0},{"OBJECT_NAME":"STARLINK-31196","OBJECT_ID":"2024-019R","EPOCH":"2025-07-27T15:43:24.703392","MEAN_MOTION":15.25917334,"ECCENTRICITY":5.3e-6,"INCLINATION":42.9962,"RA_OF_ASC_NODE":80.0363,"ARG_OF_PERICENTER":70.0613,"MEAN_ANOMALY":290.0244,"EPHEMERIS_TYPE":0,"CLASSIFICATION_TYPE":"U","NORAD_CAT_ID":58868,"ELEMENT_SET_NO":999,"REV_AT_EPOCH":8464,"BSTAR":-0.00012257,"MEAN_MOTION_DOT":-3.462e-5,"MEAN_MOTION_DDOT":0},{"OBJECT_NAME":"STARLINK-31203","OBJECT_ID":"2024-019S","EPOCH":"2025-07-27T16:06:36.129600","MEAN_MOTION":15.26258361,"ECCENTRICITY":0.000146,"INCLINATION":43.0029,"RA_OF_ASC_NODE":74.9538,"ARG_OF_PERICENTER":258.137,"MEAN_ANOMALY":101.9318,"EPHEMERIS_TYPE":0,"CLASSIFICATION_TYPE":"U","NORAD_CAT_ID":58869,"ELEMENT_SET_NO":999,"REV_AT_EPOCH":8472,"BSTAR":0.00076155,"MEAN_MOTION_DOT":0.00019927,"MEAN_MOTION_DDOT":0}]
